[{"OBJECT_NAME":"STARLINK-32861","OBJECT_ID":"2025-022S","EPOCH":"2026-03-09T11:47:25.342656","MEAN_MOTION":15.30206511,"ECCENTRICITY":0.00012167,"INCLINATION":53.1604,"RA_OF_ASC_NODE":130.2592,"ARG_OF_PERICENTER":86.9446,"MEAN_ANOMALY":273.1694,"EPHEMERIS_TYPE":0,"CLASSIFICATION_TYPE":"U","NORAD_CAT_ID":62870,"ELEMENT_SET_NO":999,"REV_AT_EPOCH":6187,"BSTAR":0.00087061268,"MEAN_MOTION_DOT":0.0002552,"MEAN_MOTION_DDOT":0},{"OBJECT_NAME":"CERISE","OBJECT_ID":"1995-033B","EPOCH":"2026-03-09T23:11:27.589056","MEAN_MOTION":15.32047731,"ECCENTRICITY":0.00057118,"INCLINATION":98.325,"RA_OF_ASC_NODE":273.5192,"ARG_OF_PERICENTER":211.8754,"MEAN_ANOMALY":148.214,"EPHEMERIS_TYPE":0,"CLASSIFICATION_TYPE":"U","NORAD_CAT_ID":23606,"ELEMENT_SET_NO":999,"REV_AT_EPOCH":66468,"BSTAR":0.00062940675,"MEAN_MOTION_DOT":0.00019422,"MEAN_MOTION_DDOT":0}]
